TIANMU-1 20             
1 58661U 23208B   24103.52260717  .00006849  00000+0  37399-3 0  9991
2 58661  97.3966 217.5959 0009541 237.7243 122.3065 15.14599001 16239
TIANMU-1 21             
1 58662U 23208C   24103.55193271  .00006747  00000+0  36054-3 0  9999
2 58662  97.4004 217.7669 0009253 237.9505 122.0829 15.15378148 16241
TIANMU-1 22             
1 58663U 23208D   24103.56965598  .00006161  00000+0  34029-3 0  9990
2 58663  97.4024 217.7672 0005518 237.3293 122.7407 15.14260062 16249
TIANMU-1 15             
1 58700U 24004A   24103.47929957  .00005279  00000+0  29249-3 0  9993
2 58700  97.4625 285.8437 0009065 278.3779  81.6425 15.14197816 14829
TIANMU-1 16             
1 58701U 24004B   24103.52938646  .00005903  00000+0  32667-3 0  9997
2 58701  97.4550 285.8337 0009040 286.4398  73.5840 15.14188215 14831
TIANMU-1 17             
1 58702U 24004C   24103.51350084  .00006147  00000+0  34029-3 0  9996
2 58702  97.4597 285.9118 0006444 280.2673  79.7832 15.14179804 14826
TIANMU-1 18             
1 58703U 24004D   24103.49791230  .00005491  00000+0  30480-3 0  9994
2 58703  97.4613 285.9520 0005712 269.3090  90.7487 15.14132755 14824
INSAT-3DS               
1 58990U 24033A   24103.09806478 -.00000173  00000+0  00000+0 0  9995
2 58990   0.1235  86.3370 0011049   0.4615 232.2925  1.00271053   848
METEOR-M2 4             
1 59051U 24039A   24103.49600123  .00000065  00000+0  48440-4 0  9997
2 59051  98.5918  67.0288 0006369 323.9386  36.1362 14.22209658  6153
2024-048A               
1 59228U 24048A   24086.00000000 -.00001539  00000+0  00000+0 0  9991
2 59228  27.6104   4.8377 9384788 141.5911 234.7528  0.21026503   387
STARLINK-31304          
1 59231U 24049A   24103.47713933 -.00006959  00000+0 -15962-3 0  9992
2 59231  42.9994 152.2345 0001227 263.4451  96.6265 15.40674136  5486
STARLINK-31305          
1 59232U 24049B   24102.46773521 -.00303120  00000+0 -58432-2 0  9998
2 59232  42.9998 157.5498 0001584 309.5225  50.5494 15.48159514  5349
STARLINK-31459          
1 59233U 24049C   24103.25001157  .00034307  00000+0  82581-3 0  9995
2 59233  42.9991 153.0632 0001961 262.8986 114.9778 15.40663550  5452
STARLINK-31438          
1 59234U 24049D   24103.46593556 -.00007918  00000+0 -18259-3 0  9999
2 59234  43.0004 152.1510 0002083 281.0826  78.9796 15.40677783  5482
STARLINK-31467          
1 59235U 24049E   24103.25001157 -.00011204  00000+0 -26137-3 0  9995
2 59235  42.9992 153.0915 0000884 307.6862  57.7633 15.40697100  5523
STARLINK-31444          
1 59236U 24049F   24103.25001157 -.00012566  00000+0 -22144-3 0  9992
2 59236  42.9992 150.7190 0001316 273.9544 330.6629 15.48923711  5487
STARLINK-31505          
1 59237U 24049G   24103.47042406 -.00000075  00000+0  54677-5 0  9998
2 59237  43.0009 152.1804 0001655 238.2435 121.8261 15.40654701  5480
STARLINK-31494          
1 59238U 24049H   24103.32732926 -.00007944  00000+0 -18330-3 0  9993
2 59238  42.9985 152.8264 0001005 313.5915  46.4858 15.40670591  5410
STARLINK-31303          
1 59239U 24049J   24103.46356215  .00004731  00000+0  12049-3 0  9992
2 59239  42.9989 151.2377 0000997 272.3463  87.7279 15.40686035  5495
STARLINK-31408          
1 59240U 24049K   24102.33647545  .00002567  00000+0  52451-4 0  9995
2 59240  42.9991 158.2843 0001088 264.7675  95.3060 15.48910454  5336
STARLINK-31427          
1 59241U 24049L   24103.58334491  .00126338  00000+0  29880-2 0  9998
2 59241  42.9995 150.0000 0001070 311.8493 217.3721 15.40637856  5580
STARLINK-31423          
1 59242U 24049M   24102.91667824 -.00005717  00000+0 -97412-4 0  9991
2 59242  42.9991 154.8868 0001392 282.8256  82.1239 15.48905799  5542
STARLINK-31433          
1 59243U 24049N   24103.25001157  .00037923  00000+0  91152-3 0  9997
2 59243  42.9993 153.1197 0002007 248.8262 104.1776 15.40668591  5454
STARLINK-31285          
1 59244U 24049P   24103.19991459  .00007076  00000+0  17664-3 0  9996
2 59244  42.9982 153.5880 0001163 262.6074  97.4650 15.40676159  5446
STARLINK-31268          
1 59245U 24049Q   24103.45250214 -.00002480  00000+0 -52165-4 0  9995
2 59245  42.9971 152.0401 0000977 252.4190 107.6559 15.40685328  5480
STARLINK-31284          
1 59246U 24049R   24103.58334491  .00124596  00000+0  29456-2 0  9996
2 59246  42.9994 151.2293 0001058 274.8771 116.6846 15.40658050  5504
STARLINK-31424          
1 59247U 24049S   24103.33180368 -.00010836  00000+0 -25268-3 0  9993
2 59247  42.9983 152.8599 0000259 167.7842 192.3021 15.40682108  5462
STARLINK-31405          
1 59248U 24049T   24102.84953336 -.00209178  00000+0 -39851-2 0  9993
2 59248  43.0009 155.2553 0005411  46.7100 313.4210 15.48118356  5406
STARLINK-31426          
1 59249U 24049U   24103.58334491 -.02120799  00000+0 -49057-1 0  9992
2 59249  42.9992 150.9774 0001125 287.3018 208.0053 15.45331385  5514
STARLINK-31407          
1 59250U 24049V   24103.46818066  .00002297  00000+0  62280-4 0  9990
2 59250  43.0018 152.1622 0001918 260.5845  99.4795 15.40684375  5480
STARLINK-31418          
1 59251U 24049W   24103.49274079  .00014940  00000+0  27543-3 0  9994
2 59251  42.9998 151.4781 0000740  21.8779 338.2112 15.48936936  5613
STARLINK-31393          
1 59252U 24049X   24103.45474483 -.00003350  00000+0 -73042-4 0  9993
2 59252  42.9991 152.0580 0000942 255.7893 104.2858 15.40675599  5547
STARLINK-31425          
1 59253U 24049Y   24103.19093015  .00008224  00000+0  20384-3 0  9996
2 59253  42.9994 153.5167 0001970 274.8474  85.2157 15.40713180  5445
STARLINK-31659          
1 59254U 24050A   24100.27875535  .00065508  00000+0  14674-2 0  9992
2 59254  53.1603 199.7831 0001472  76.1357 283.9812 15.42855877  4487
STARLINK-31629          
1 59255U 24050B   24102.46813556 -.00682779  00000+0 -14230-1 0  9995
2 59255  53.1587 189.2725 0004908  15.4477 344.6681 15.47524405  3664
STARLINK-31652          
1 59256U 24050C   24103.25001157  .00023313  00000+0  53209-3 0  9992
2 59256  53.1592 185.5552 0001104  56.7857 334.7777 15.42799216  4940
STARLINK-31655          
1 59257U 24050D   24103.22571317  .00148267  00000+0  10418-2 0  9990
2 59257  53.1591 184.0229 0002239  31.8508 328.2647 15.73208570  4960
STARLINK-31637          
1 59258U 24050E   24103.25001157  .00130399  00000+0  28984-2 0  9998
2 59258  53.1583 185.6579 0001204  96.8829 243.1392 15.42741118  4941
STARLINK-31506          
1 59259U 24050F   24100.07938816 -.01069868  00000+0 -23610-1 0  9992
2 59259  53.1606 200.6705 0000323  96.2701 263.8344 15.46261928  3294
STARLINK-31288          
1 59260U 24050G   24103.49940148  .00068896  00000+0  12842-2 0  9997
2 59260  53.1591 184.3272 0001608  72.1468 287.9716 15.48212427  4985
STARLINK-31639          
1 59261U 24050H   24101.24097324 -.00434594  00000+0 -97007-2 0  9998
2 59261  53.1596 195.1221 0001109  45.7107 314.3990 15.44646138  4634
STARLINK-31673          
1 59262U 24050J   24103.49819930  .00117786  00000+0  21798-2 0  9996
2 59262  53.1584 184.3228 0001177  99.4641 260.6501 15.48161545  4980
STARLINK-31598          
1 59263U 24050K   24101.55217216  .00021479  00000+0  40764-3 0  9999
2 59263  53.1584 192.7765 0001944 107.0550 253.0671 15.48271746  4683
STARLINK-31645          
1 59264U 24050L   24103.49778146  .00104139  00000+0  19265-2 0  9995
2 59264  53.1595 184.3201 0000897 121.1028 239.0068 15.48237350  4981
STARLINK-31646          
1 59265U 24050M   24103.49742549  .00050766  00000+0  94923-3 0  9995
2 59265  53.1588 184.3187 0001950  50.1235 309.9944 15.48254509  4984
STARLINK-31648          
1 59266U 24050N   24103.58334491  .00119974  00000+0  26695-2 0  9996
2 59266  53.1594 183.9298 0001486 107.4175   0.4871 15.42758603  4994
STARLINK-31579          
1 59267U 24050P   24103.23856038  .00057399  00000+0  10718-2 0  9996
2 59267  53.1591 185.5456 0002267 104.6312 255.4947 15.48239364  4941
STARLINK-31627          
1 59268U 24050Q   24103.49633323  .00000633  00000+0  20118-4 0  9991
2 59268  53.1593 184.3107 0002230  94.8672 265.2591 15.48187262  4980
STARLINK-31609          
1 59269U 24050R   24103.49598126  .00037005  00000+0  69622-3 0  9998
2 59269  53.1580 184.3076 0001826  49.4508 310.6659 15.48219952  4988
STARLINK-31616          
1 59270U 24050S   24102.85006543 -.00053682  00000+0 -99918-3 0  9998
2 59270  53.1592 187.3873 0001491  75.8188 284.2986 15.48282742  3723
STARLINK-31630          
1 59271U 24050T   24103.49485774  .00034735  00000+0  65520-3 0  9995
2 59271  53.1588 184.2992 0001270  74.4291 285.6857 15.48176756  4980
STARLINK-31623          
1 59272U 24050U   24102.54138917  .00014034  00000+0  32417-3 0  9994
2 59272  53.1582 189.0176 0001497  80.5081 279.6094 15.42820791  3678
STARLINK-31595          
1 59273U 24050V   24103.54043904 -.01054329  00000+0 -25397-1 0  9998
2 59273  53.1598 183.8720 0002296  85.7810 274.3459 15.43656666  4989
2024-052A               
1 59280U 24052A   24103.52673857 -.00000084  00000+0  85339-4 0  9994
2 59280  50.0987 149.4153 0005733 281.0786  78.9444 13.32996009  2989
2024-052B               
1 59281U 24052B   24103.52181429 -.00000086  00000+0  81099-4 0  9995
2 59281  50.0965 149.3912 0005226 294.1933  65.8395 13.33292293  2989
2024-052C               
1 59282U 24052C   24103.51658494 -.00000080  00000+0  91516-4 0  9995
2 59282  50.0988 149.3665 0005465 311.0949  48.9454 13.33607165  2987
2024-052D               
1 59283U 24052D   24103.49301711  .00014587  00000+0  51781-3 0  9995
2 59283  50.1000 119.4780 0007381 357.4213   2.6707 15.29200656  3415
2024-052E               
1 59284U 24052E   24103.48769423  .00014587  00000+0  51183-3 0  9999
2 59284  50.1013 119.4439 0008686   5.4773 354.6280 15.29572842  3405
